{
  "type": "FeatureCollection",
  "features": [
    {
      "type": "Feature",
      "properties": {
        "norad_id": 66502,
        "name": "STARLINK-35922",
        "group": "last-30-days",
        "lat": 34.64281419445411,
        "lon": 179.23697759703177,
        "alt_km": 410.4419390283756,
        "timestamp": "2025-12-11T15:53:38.292767+00:00",
        "meta_object_name": "STARLINK-35922",
        "meta_object_id": "2025-263T",
        "meta_epoch": "2025-12-11T06:00:02.999808",
        "meta_mean_motion": 15.50607268,
        "meta_eccentricity": 0.00014901,
        "meta_inclination": 43.0006,
        "meta_ra_of_asc_node": 133.7914,
        "meta_arg_of_pericenter": 267.1558,
        "meta_mean_anomaly": 5.6017,
        "meta_ephemeris_type": 0,
        "meta_classification_type": "U",
        "meta_norad_cat_id": 66502,
        "meta_element_set_no": 999,
        "meta_rev_at_epoch": 539,
        "meta_bstar": -0.0011615988,
        "meta_mean_motion_dot": -0.00067967,
        "meta_mean_motion_ddot": 0,
        "tle_line1": "1 66502U 25263T   25345.25003472 -.00067967  00000+0 -11616-2 0  9992",
        "tle_line2": "2 66502  43.0006 133.7914 0001490 267.1558   5.6017 15.50607268  5396"
      },
      "geometry": {
        "type": "Point",
        "coordinates": [
          179.23697759703177,
          34.64281419445411
        ]
      }
    },
    {
      "type": "Feature",
      "properties": {
        "norad_id": 66503,
        "name": "STARLINK-35917",
        "group": "last-30-days",
        "lat": 36.30038510757461,
        "lon": -176.6028520850464,
        "alt_km": 410.92897841931426,
        "timestamp": "2025-12-11T15:53:38.292778+00:00",
        "meta_object_name": "STARLINK-35917",
        "meta_object_id": "2025-263U",
        "meta_epoch": "2025-12-11T06:00:02.999808",
        "meta_mean_motion": 15.50696925,
        "meta_eccentricity": 0.00018381,
        "meta_inclination": 43.0004,
        "meta_ra_of_asc_node": 133.7821,
        "meta_arg_of_pericenter": 261.5528,
        "meta_mean_anomaly": 15.0229,
        "meta_ephemeris_type": 0,
        "meta_classification_type": "U",
        "meta_norad_cat_id": 66503,
        "meta_element_set_no": 999,
        "meta_rev_at_epoch": 539,
        "meta_bstar": -0.0061073809,
        "meta_mean_motion_dot": -0.0034478,
        "meta_mean_motion_ddot": 0,
        "tle_line1": "1 66503U 25263U   25345.25003472 -.00344780  00000+0 -61074-2 0  9997",
        "tle_line2": "2 66503  43.0004 133.7821 0001838 261.5528  15.0229 15.50696925  5391"
      },
      "geometry": {
        "type": "Point",
        "coordinates": [
          -176.6028520850464,
          36.30038510757461
        ]
      }
    },
    {
      "type": "Feature",
      "properties": {
        "norad_id": 66504,
        "name": "STARLINK-35916",
        "group": "last-30-days",
        "lat": -0.6044570860278133,
        "lon": -46.50982943294278,
        "alt_km": 443.91968181293214,
        "timestamp": "2025-12-11T15:53:38.292788+00:00",
        "meta_object_name": "STARLINK-35916",
        "meta_object_id": "2025-263V",
        "meta_epoch": "2025-12-11T02:39:58.353120",
        "meta_mean_motion": 15.40717379,
        "meta_eccentricity": 0.00015168,
        "meta_inclination": 42.9999,
        "meta_ra_of_asc_node": 136.0186,
        "meta_arg_of_pericenter": 285.0146,
        "meta_mean_anomaly": 75.0543,
        "meta_ephemeris_type": 0,
        "meta_classification_type": "U",
        "meta_norad_cat_id": 66504,
        "meta_element_set_no": 999,
        "meta_rev_at_epoch": 529,
        "meta_bstar": 0.0017331304,
        "meta_mean_motion_dot": 0.0007283,
        "meta_mean_motion_ddot": 0,
        "tle_line1": "1 66504U 25263V   25345.11109205  .00072830  00000+0  17331-2 0  9993",
        "tle_line2": "2 66504  42.9999 136.0186 0001516 285.0146  75.0543 15.40717379  5293"
      },
      "geometry": {
        "type": "Point",
        "coordinates": [
          -46.50982943294278,
          -0.6044570860278133
        ]
      }
    },
    {
      "type": "Feature",
      "properties": {
        "norad_id": 66505,
        "name": "STARLINK-34766",
        "group": "last-30-days",
        "lat": 32.81893456108228,
        "lon": 175.18413275759406,
        "alt_km": 410.86544019494704,
        "timestamp": "2025-12-11T15:53:38.292799+00:00",
        "meta_object_name": "STARLINK-34766",
        "meta_object_id": "2025-263W",
        "meta_epoch": "2025-12-11T06:00:02.999808",
        "meta_mean_motion": 15.50610792,
        "meta_eccentricity": 0.00016376,
        "meta_inclination": 43.0007,
        "meta_ra_of_asc_node": 133.8013,
        "meta_arg_of_pericenter": 259.3183,
        "meta_mean_anomaly": 9.6036,
        "meta_ephemeris_type": 0,
        "meta_classification_type": "U",
        "meta_norad_cat_id": 66505,
        "meta_element_set_no": 999,
        "meta_rev_at_epoch": 539,
        "meta_bstar": -0.0012737849,
        "meta_mean_motion_dot": -0.00074447,
        "meta_mean_motion_ddot": 0,
        "tle_line1": "1 66505U 25263W   25345.25003472 -.00074447  00000+0 -12738-2 0  9992",
        "tle_line2": "2 66505  43.0007 133.8013 0001637 259.3183   9.6036 15.50610792  5392"
      },
      "geometry": {
        "type": "Point",
        "coordinates": [
          175.18413275759406,
          32.81893456108228
        ]
      }
    },
    {
      "type": "Feature",
      "properties": {
        "norad_id": 66506,
        "name": "STARLINK-34765",
        "group": "last-30-days",
        "lat": 33.751723682655495,
        "lon": 177.1987615134912,
        "alt_km": 410.68481743217217,
        "timestamp": "2025-12-11T15:53:38.292814+00:00",
        "meta_object_name": "STARLINK-34765",
        "meta_object_id": "2025-263X",
        "meta_epoch": "2025-12-11T06:00:02.999808",
        "meta_mean_motion": 15.50631422,
        "meta_eccentricity": 0.00015791,
        "meta_inclination": 43.0007,
        "meta_ra_of_asc_node": 133.7969,
        "meta_arg_of_pericenter": 262.7771,
        "meta_mean_anomaly": 8.0596,
        "meta_ephemeris_type": 0,
        "meta_classification_type": "U",
        "meta_norad_cat_id": 66506,
        "meta_element_set_no": 999,
        "meta_rev_at_epoch": 539,
        "meta_bstar": -0.0018168911,
        "meta_mean_motion_dot": -0.00105702,
        "meta_mean_motion_ddot": 0,
        "tle_line1": "1 66506U 25263X   25345.25003472 -.00105702  00000+0 -18169-2 0  9996",
        "tle_line2": "2 66506  43.0007 133.7969 0001579 262.7771   8.0596 15.50631422  5395"
      },
      "geometry": {
        "type": "Point",
        "coordinates": [
          177.1987615134912,
          33.751723682655495
        ]
      }
    },
    {
      "type": "Feature",
      "properties": {
        "norad_id": 66507,
        "name": "STARLINK-34767",
        "group": "last-30-days",
        "lat": 33.64084842319601,
        "lon": 176.95190577326173,
        "alt_km": 420.0632730625821,
        "timestamp": "2025-12-11T15:53:38.292825+00:00",
        "meta_object_name": "STARLINK-34767",
        "meta_object_id": "2025-263Y",
        "meta_epoch": "2025-12-11T06:00:02.999808",
        "meta_mean_motion": 15.49262822,
        "meta_eccentricity": 0.00016569,
        "meta_inclination": 43.0006,
        "meta_ra_of_asc_node": 133.7877,
        "meta_arg_of_pericenter": 263.9662,
        "meta_mean_anomaly": 10.0134,
        "meta_ephemeris_type": 0,
        "meta_classification_type": "U",
        "meta_norad_cat_id": 66507,
        "meta_element_set_no": 999,
        "meta_rev_at_epoch": 539,
        "meta_bstar": -0.04202207,
        "meta_mean_motion_dot": -0.02089881,
        "meta_mean_motion_ddot": 0,
        "tle_line1": "1 66507U 25263Y   25345.25003472 -.02089881  00000+0 -42022-1 0  9992",
        "tle_line2": "2 66507  43.0006 133.7877 0001656 263.9662  10.0134 15.49262822  5394"
      },
      "geometry": {
        "type": "Point",
        "coordinates": [
          176.95190577326173,
          33.64084842319601
        ]
      }
    },
    {
      "type": "Feature",
      "properties": {
        "norad_id": 66508,
        "name": "STARLINK-35608",
        "group": "last-30-days",
        "lat": 37.85312174066726,
        "lon": -172.128694112199,
        "alt_km": 410.08533565465495,
        "timestamp": "2025-12-11T15:53:38.292834+00:00",
        "meta_object_name": "STARLINK-35608",
        "meta_object_id": "2025-263Z",
        "meta_epoch": "2025-12-11T06:00:02.999808",
        "meta_mean_motion": 15.50612902,
        "meta_eccentricity": 0.00015711,
        "meta_inclination": 43.0006,
        "meta_ra_of_asc_node": 133.7725,
        "meta_arg_of_pericenter": 263.7116,
        "meta_mean_anomaly": 16.7146,
        "meta_ephemeris_type": 0,
        "meta_classification_type": "U",
        "meta_norad_cat_id": 66508,
        "meta_element_set_no": 999,
        "meta_rev_at_epoch": 539,
        "meta_bstar": -0.0013511903,
        "meta_mean_motion_dot": -0.00078911,
        "meta_mean_motion_ddot": 0,
        "tle_line1": "1 66508U 25263Z   25345.25003472 -.00078911  00000+0 -13512-2 0  9996",
        "tle_line2": "2 66508  43.0006 133.7725 0001571 263.7116  16.7146 15.50612902  5391"
      },
      "geometry": {
        "type": "Point",
        "coordinates": [
          -172.128694112199,
          37.85312174066726
        ]
      }
    }
  ]
}